IRIDIUM 63              
1 25286U 98021B   25144.84479394  .00000352  00000+0  11310-3 0  9995
2 25286  86.3965  91.9242 0002313  82.0212 278.1247 14.36528043420499
IRIDIUM 69              
1 25319U 98026A   25144.92897330  .00000403  00000+0  11925-3 0  9999
2 25319  86.3955 105.2512 0004662  93.7146 266.4586 14.40944733419710
IRIDIUM 71              
1 25320U 98026B   25145.35549392  .00000394  00000+0  11622-3 0  9994
2 25320  86.3956  99.7647 0003546 122.3997 237.7546 14.41139852420552
IRIDIUM 73              
1 25344U 98032C   25145.03963595  .00000496  00000+0  11850-3 0  9993
2 25344  86.4426  56.6465 0002984  82.4486 277.7058 14.51690110427509
IRIDIUM 82              
1 25467U 98051A   25144.96677322  .00024872  00000+0  73029-3 0  9991
2 25467  86.3649 121.1463 0088365  27.2197 333.3642 15.31119862420409
